NORAD_CAT_ID,OBJECT_NAME,OBJECT_TYPE,EPOCH,MEAN_MOTION,ECCENTRICITY,INCLINATION,RA_OF_ASC_NODE,ARG_OF_PERICENTER,MEAN_ANOMALY,BSTAR,MEAN_MOTION_DOT,MEAN_MOTION_DDOT,TLE_LINE0,TLE_LINE1,TLE_LINE2,SEMIMAJOR_AXIS,PERIOD,APOGEE,PERIGEE,DECAYED
52856.0,STARLINK-4201,PAYLOAD,2022-10-21 22:00:00,15.08863484,0.0001924,53.2151,167.2264,53.7031,337.4649,-0.00326,-0.00051832,0.0,0 STARLINK-4201,1 52856U 22062AC  22294.91667824 -.00051832  00000-0 -32600-2 0  9994,2 52856  53.2151 167.2264 0001924  53.7031 337.4649 15.08863484 20003,6917.809,95.436,541.005,538.3430000000002,0.0
52856.0,STARLINK-4201,PAYLOAD,2022-10-22 14:00:01,15.08857333,0.0001679,53.2152,164.2318,59.5838,354.7973,-0.0010255999999999,-0.00016581,0.0,0 STARLINK-4201,1 52856U 22062AC  22295.58334491 -.00016581  00000-0 -10256-2 0  9994,2 52856  53.2152 164.2318 0001679  59.5838 354.7973 15.08857333 20106,6917.8269999999975,95.436,540.854,538.531,0.0
52856.0,STARLINK-4201,PAYLOAD,2022-10-22 22:00:00,15.08843448,0.0001786999999999,53.2152,162.7371,53.3056,12.6907,-0.00015431,-2.743e-05,0.0,0 STARLINK-4201,1 52856U 22062AC  22295.91667824 -.00002743  00000-0 -15431-3 0  9996,2 52856  53.2152 162.7371 0001787  53.3056  12.6907 15.08843448  1302,6917.87,95.437,540.971,538.499,0.0
52856.0,STARLINK-4201,PAYLOAD,2022-10-23 08:00:01,15.08871416,0.0001715,53.2154,160.8656,54.4297,116.1336,-0.00071516,-0.00011662,0.0,0 STARLINK-4201,1 52856U 22062AC  22296.33335648 -.00011662  00000-0 -71516-3 0  9995,2 52856  53.2154 160.8656 0001715  54.4297 116.1336 15.08871416 20223,6917.784000000002,95.436,540.836,538.4630000000002,0.0
52856.0,STARLINK-4201,PAYLOAD,2022-10-23 14:00:01,15.08863376,0.0001744,53.2155,159.7424,59.595,29.6197,-0.00065224,-0.0001065999999999,0.0,0 STARLINK-4201,1 52856U 22062AC  22296.58334491 -.00010660  00000-0 -65224-3 0  9993,2 52856  53.2155 159.7424 0001744  59.5950  29.6197 15.08863376  1305,6917.809,95.436,540.88,538.467,0.0
52856.0,STARLINK-4201,PAYLOAD,2022-10-23 22:00:00,15.08857083,0.0001903,53.2154,158.2478,54.6401,46.1912,-0.0032499,-0.00051665,0.0,0 STARLINK-4201,1 52856U 22062AC  22296.91667824 -.00051665  00000-0 -32499-2 0  9996,2 52856  53.2154 158.2478 0001903  54.6401  46.1912 15.08857083  1308,6917.828,95.436,541.01,538.377,0.0
52856.0,STARLINK-4201,PAYLOAD,2022-10-24 06:00:00,15.08837706,0.0001748,53.2153,156.7507,52.1175,60.3089,-0.0037838,-0.00060003,0.0,0 STARLINK-4201,1 52856U 22062AC  22297.25001157 -.00060003  00000-0 -37838-2 0  9993,2 52856  53.2153 156.7507 0001748  52.1175  60.3089 15.08837706 20350,6917.887,95.438,540.962,538.543,0.0
52856.0,STARLINK-4201,PAYLOAD,2022-10-24 14:00:01,15.08794218,0.0001647,53.2155,155.2532,58.371,65.6194,0.0020196999999999,0.00031962,0.0,0 STARLINK-4201,1 52856U 22062AC  22297.58334491  .00031962  00000-0  20197-2 0  9999,2 52856  53.2155 155.2532 0001647  58.3710  65.6194 15.08794218  1304,6918.02,95.44,541.025,538.746,0.0
52856.0,STARLINK-4201,PAYLOAD,2022-10-24 22:00:00,15.08807079,0.0001803,53.2153,153.7586,52.5568,82.9879,-2.556e-05,-6.94e-06,0.0,0 STARLINK-4201,1 52856U 22062AC  22297.91667824 -.00000694  00000-0 -25560-4 0  9996,2 52856  53.2153 153.7586 0001803  52.5568  82.9879 15.08807079  1307,6917.981,95.44,541.0930000000002,538.599,0.0
52856.0,STARLINK-4201,PAYLOAD,2022-10-25 00:00:00,15.08790664,0.000183,53.2154,153.3848,50.9408,177.4976,0.0024449,0.00038785,0.0,0 STARLINK-4201,1 52856U 22062AC  22298.00001157  .00038785  00000-0  24449-2 0  9991,2 52856  53.2154 153.3848 0001830  50.9408 177.4976 15.08790664 20478,6918.031,95.441,541.1619999999998,538.63,0.0
52856.0,STARLINK-4201,PAYLOAD,2022-10-25 14:00:01,15.08813825,0.0001662,53.2153,150.7641,60.2173,98.4475,0.0014157,0.00022299,0.0,0 STARLINK-4201,1 52856U 22062AC  22298.58334491  .00022299  00000-0  14157-2 0  9992,2 52856  53.2153 150.7641 0001662  60.2173  98.4475 15.08813825  1307,6917.96,95.439,540.975,538.6759999999998,0.0
52856.0,STARLINK-4201,PAYLOAD,2022-10-25 22:00:01,15.08818172,0.000181,53.215,149.2694,53.6347,116.6688,0.00029572,4.419e-05,0.0,0 STARLINK-4201,1 52856U 22062AC  22298.91668981  .00004419  00000-0  29572-3 0  9995,2 52856  53.2150 149.2694 0001810  53.6347 116.6688 15.08818172  1308,6917.946999999999,95.439,541.064,538.56,0.0
52856.0,STARLINK-4201,PAYLOAD,2022-10-26 08:00:01,15.08829373,0.0001666999999999,53.2148,147.3975,57.1787,217.5951,-0.00013224,-2.391e-05,0.0,0 STARLINK-4201,1 52856U 22062AC  22299.33335648 -.00002391  00000-0 -13224-3 0  9999,2 52856  53.2148 147.3975 0001667  57.1787 217.5951 15.08829373 20673,6917.913000000001,95.438,540.931,538.625,0.0
52856.0,STARLINK-4201,PAYLOAD,2022-10-26 14:00:01,15.0883258,0.0001663,53.2148,146.275,62.2828,131.1111,0.0010857,0.0001703,0.0,0 STARLINK-4201,1 52856U 22062AC  22299.58334491  .00017030  00000-0  10857-2 0  9993,2 52856  53.2148 146.2750 0001663  62.2828 131.1111 15.08832580  1303,6917.903,95.438,540.919,538.618,0.0
52856.0,STARLINK-4201,PAYLOAD,2022-10-26 22:00:00,15.08836829,0.0001704,53.2175,144.7806,46.7952,158.2648,-1.4642e-06,-3.11e-06,0.0,0 STARLINK-4201,1 52856U 22062AC  22299.91667824 -.00000311  00000-0 -14642-5 0  9994,2 52856  53.2175 144.7806 0001704  46.7952 158.2648 15.08836829 20765,6917.89,95.438,540.934,538.576,0.0
52856.0,STARLINK-4201,PAYLOAD,2022-10-27 14:00:01,15.08871706,0.0001699999999999,53.2143,141.7855,64.6005,163.6982,-0.0018875999999999,-0.0003023,0.0,0 STARLINK-4201,1 52856U 22062AC  22300.58335648 -.00030230  00000-0 -18876-2 0  9999,2 52856  53.2143 141.7855 0001700  64.6005 163.6982 15.08871706  1308,6917.783,95.436,540.825,538.472,0.0
52856.0,STARLINK-4201,PAYLOAD,2022-10-27 22:00:00,15.08824251,0.0001781,53.2141,140.2907,55.3521,184.5102,0.00075938,0.00011813,0.0,0 STARLINK-4201,1 52856U 22062AC  22300.91667824  .00011813  00000-0  75938-3 0  9997,2 52856  53.2141 140.2907 0001781  55.3521 184.5102 15.08824251  1306,6917.929,95.439,541.026,538.561,0.0
52856.0,STARLINK-4201,PAYLOAD,2022-10-28 02:00:01,15.08828754,0.0001744,53.2137,139.5422,53.1535,12.5627,0.0011438,0.00017957,0.0,0 STARLINK-4201,1 52856U 22062AC  22301.08335648  .00017957  00000-0  11438-2 0  9991,2 52856  53.2137 139.5422 0001744  53.1535  12.5627 15.08828754 20938,6917.915,95.438,540.986,538.573,0.0
52856.0,STARLINK-4201,PAYLOAD,2022-10-28 14:00:01,15.08819373,0.0001563,53.2141,137.2961,64.8647,198.1945,0.00037092,5.617e-05,0.0,0 STARLINK-4201,1 52856U 22062AC  22301.58335648  .00005617  00000-0  37092-3 0  9991,2 52856  53.2141 137.2961 0001563  64.8647 198.1945 15.08819373  1309,6917.943,95.439,540.89,538.727,0.0
52856.0,STARLINK-4201,PAYLOAD,2022-10-28 22:00:01,15.08803864,0.0001718,53.2142,135.8014,56.3834,218.2523,0.0019,0.0003005,0.0,0 STARLINK-4201,1 52856U 22062AC  22301.91668981  .00030050  00000-0  19000-2 0  9994,2 52856  53.2142 135.8014 0001718  56.3834 218.2523 15.08803864 21068,6917.991,95.44,541.044,538.6669999999998,0.0
52856.0,STARLINK-4201,PAYLOAD,2022-10-29 12:00:00,15.08819432,0.00016,53.2143,133.1808,63.9437,140.8794,0.0019829,0.00031393,0.0,0 STARLINK-4201,1 52856U 22062AC  22302.50001157  .00031393  00000-0  19829-2 0  9996,2 52856  53.2143 133.1808 0001600  63.9437 140.8794 15.08819432  1307,6917.943,95.439,540.915,538.701,0.0
52856.0,STARLINK-4201,PAYLOAD,2022-10-29 22:00:01,15.08846367,0.0001742,53.2147,131.3121,57.2321,252.1982,0.00090468,0.00014142,0.0,0 STARLINK-4201,1 52856U 22062AC  22302.91668981  .00014142  00000-0  90468-3 0  9997,2 52856  53.2147 131.3121 0001742  57.2321 252.1982 15.08846367  1307,6917.861,95.437,540.931,538.521,0.0
52856.0,STARLINK-4201,PAYLOAD,2022-10-30 00:00:00,15.08852141,0.0001699,53.2146,130.938,55.0314,347.2376,0.00012317,1.673e-05,0.0,0 STARLINK-4201,1 52856U 22062AC  22303.00001157  .00001673  00000-0  12317-3 0  9996,2 52856  53.2146 130.9380 0001699  55.0314 347.2376 15.08852141 21220,6917.843000000003,95.437,540.884,538.533,0.0
52856.0,STARLINK-4201,PAYLOAD,2022-10-30 14:00:01,15.08858026,0.0001645,53.2152,128.3176,63.5604,269.0101,-0.0029777,-0.0004738999999999,0.0,0 STARLINK-4201,1 52856U 22062AC  22303.58334491 -.00047390  00000-0 -29777-2 0  9994,2 52856  53.2152 128.3176 0001645  63.5604 269.0101 15.08858026  1300,6917.825,95.436,540.828,538.552,0.0
52856.0,STARLINK-4201,PAYLOAD,2022-10-30 22:00:01,15.08801479,0.0001841999999999,53.2154,126.8229,57.3609,286.8742,0.0026563,0.00042196,0.0,0 STARLINK-4201,1 52856U 22062AC  22303.91668981  .00042196  00000-0  26563-2 0  9992,2 52856  53.2154 126.8229 0001842  57.3609 286.8742 15.08801479  1307,6917.998000000001,95.44,541.137,538.589,0.0
52856.0,STARLINK-4201,PAYLOAD,2022-10-31 14:00:01,15.08846717,0.0001747,53.2159,123.8287,63.8974,303.4189,-0.00061104,-0.00010002,0.0,0 STARLINK-4201,1 52856U 22062AC  22304.58334491 -.00010002  00000-0 -61104-3 0  9996,2 52856  53.2159 123.8287 0001747  63.8974 303.4189 15.08846717  1309,6917.86,95.437,540.933,538.516,0.0
52856.0,STARLINK-4201,PAYLOAD,2022-10-31 22:00:01,15.08819614,0.0001872,53.2159,122.3339,57.2891,321.6945,0.0028848,0.00045897,0.0,0 STARLINK-4201,1 52856U 22062AC  22304.91668981  .00045897  00000-0  28848-2 0  9992,2 52856  53.2159 122.3339 0001872  57.2891 321.6945 15.08819614  1303,6917.943,95.439,541.1030000000002,538.513,0.0
52856.0,STARLINK-4201,PAYLOAD,2022-11-01 00:00:02,15.08829527,0.0001851999999999,53.2157,121.9596,55.77,56.1081,0.0022279,0.00035337,0.0,0 STARLINK-4201,1 52856U 22062AC  22305.00002315  .00035337  00000-0  22279-2 0  9996,2 52856  53.2157 121.9596 0001852  55.7700  56.1081 15.08829527 21522,6917.9119999999975,95.438,541.059,538.496,0.0
52856.0,STARLINK-4201,PAYLOAD,2022-11-01 14:00:01,15.08869673,0.0001696,53.2162,119.3397,62.848,339.2671,-0.0034348,-0.00054584,0.0,0 STARLINK-4201,1 52856U 22062AC  22305.58334491 -.00054584  00000-0 -34348-2 0  9999,2 52856  53.2162 119.3397 0001696  62.8480 339.2671 15.08869673 21614,6917.79,95.436,540.828,538.481,0.0
